H1 CPF  1  HTS 2022  3 16 12  5751 larets           NONE
H2  0304206 5557    27944 2022 03 16  0  0  0 2022 03 21  0  0  0   180 1 1  0 0 0
H5  0.0560 
H9 
10 0 59657   9000.00000  0    6878512.494    -572005.710   -1542530.635
10 0 59657   9180.00000  0    7014498.063    -873081.572    -218186.222
10 0 59657   9360.00000  0    6888500.242   -1142611.594    1114129.831
10 0 59657   9540.00000  0    6506063.800   -1364000.001    2405716.356
10 0 59657   9720.00000  0    5882511.551   -1522678.802    3609354.440
10 0 59657   9900.00000  0    5042304.273   -1606887.510    4681060.653
10 0 59657  10080.00000  0    4018039.177   -1608324.920    5581701.165
10 0 59657  10260.00000  0    2849141.623   -1522637.898    6278408.541
10 0 59657  10440.00000  0    1580312.053   -1349729.731    6745753.401
10 0 59657  10620.00000  0     259798.681   -1093876.252    6966639.526
10 0 59657  10800.00000  0   -1062440.144    -763641.975    6932903.261
10 0 59657  10980.00000  0   -2336615.181    -371599.743    6645606.418
10 0 59657  11160.00000  0   -3514970.456      66138.810    6115023.913
10 0 59657  11340.00000  0   -4553581.376     530569.367    5360322.627
10 0 59657  11520.00000  0   -5414029.588    1000596.981    4408923.511
10 0 59657  11700.00000  0   -6064886.291    1453966.932    3295551.058
10 0 59657  11880.00000  0   -6482935.143    1868287.044    2060991.122
10 0 59657  12060.00000  0   -6654077.472    2222093.907     750593.964
10 0 59657  12240.00000  0   -6573866.781    2495910.361    -587430.097
10 0 59657  12420.00000  0   -6247630.560    2673234.085   -1903848.539
10 0 59657  12600.00000  0   -5690172.805    2741403.718   -3150288.823
10 0 59657  12780.00000  0   -4925070.393    2692295.592   -4281078.019
10 0 59657  12960.00000  0   -3983607.833    2522811.214   -5254946.629
10 0 59657  13140.00000  0   -2903421.040    2235137.789   -6036523.647
10 0 59657  13320.00000  0   -1726930.797    1836777.391   -6597575.664
10 0 59657  13500.00000  0    -499637.090    1340346.761   -6917962.242
10 0 59657  13680.00000  0     731647.821     763161.119   -6986286.285
10 0 59657  13860.00000  0    1920563.994     126623.564   -6800247.901
10 0 59657  14040.00000  0    3022923.022    -544564.372   -6366699.345
10 0 59657  14220.00000  0    3998324.780   -1223345.914   -5701397.582
10 0 59657  14400.00000  0    4811625.162   -1881376.153   -4828465.688
10 0 59657  14580.00000  0    5434214.362   -2490184.184   -3779571.043
10 0 59657  14760.00000  0    5845055.947   -3022386.161   -2592826.538
10 0 59657  14940.00000  0    6031441.161   -3452896.727   -1311439.848
10 0 59657  15120.00000  0    5989417.074   -3760082.962      17848.708
10 0 59657  15300.00000  0    5723863.209   -3926804.294    1346482.591
10 0 59657  15480.00000  0    5248205.838   -3941283.674    2625893.234
10 0 59657  15660.00000  0    4583775.980   -3797756.735    3809310.832
10 0 59657  15840.00000  0    3758852.271   -3496867.859    4853495.216
10 0 59657  16020.00000  0    2807439.250   -3045798.560    5720321.980
10 0 59657  16200.00000  0    1767840.446   -2458119.335    6378159.584
10 0 59657  16380.00000  0     681098.875   -1753377.206    6802993.073
10 0 59657  16560.00000  0    -410629.058    -956439.467    6979266.526
10 0 59657  16740.00000  0   -1465702.621     -96616.105    6900429.081
10 0 59657  16920.00000  0   -2444575.127     793410.402    6569177.244
10 0 59657  17100.00000  0   -3311274.841    1678816.308    5997388.139
10 0 59657  17280.00000  0   -4034742.405    2523991.325    5205740.247
10 0 59657  17460.00000  0   -4589981.516    3293975.380    4223021.193
10 0 59657  17640.00000  0   -4958974.991    3955922.703    3085124.455
10 0 59657  17820.00000  0   -5131320.758    4480529.026    1833759.404
10 0 59657  18000.00000  0   -5104553.292    4843357.147     514912.361
10 0 59657  18180.00000  0   -4884125.924    5025983.009    -822887.438
10 0 59657  18360.00000  0   -4483052.557    5016899.626   -2130419.481
10 0 59657  18540.00000  0   -3921217.370    4812126.511   -3359657.723
10 0 59657  18720.00000  0   -3224396.127    4415486.144   -4465591.409
10 0 59657  18900.00000  0   -2423048.556    3838542.147   -5407892.660
10 0 59657  19080.00000  0   -1550958.726    3100219.182   -6152366.191
10 0 59657  19260.00000  0    -643790.162    2226128.767   -6672144.510
10 0 59657  19440.00000  0     262380.091    1247633.165   -6948590.714
10 0 59657  19620.00000  0    1132483.611     200697.160   -6971898.745
10 0 59657  19800.00000  0    1933796.399    -875432.911   -6741393.949
10 0 59657  19980.00000  0    2637145.772   -1939683.382   -6265528.538
10 0 59657  20160.00000  0    3217953.818   -2950692.970   -5561583.614
10 0 59657  20340.00000  0    3657093.870   -3868401.486   -4655084.952
10 0 59657  20520.00000  0    3941527.971   -4655635.582   -3578924.811
10 0 59657  20700.00000  0    4064699.103   -5279622.268   -2372217.504
10 0 59657  20880.00000  0    4026667.448   -5713377.940   -1078912.550
10 0 59657  21060.00000  0    3833971.607   -5936899.162     253800.638
10 0 59657  21240.00000  0    3499216.947   -5938089.398    1577232.553
10 0 59657  21420.00000  0    3040409.608   -5713370.408    2843005.359
10 0 59657  21600.00000  0    2480066.235   -5267940.209    4004854.862
10 0 59657  21780.00000  0    1844150.119   -4615671.476    5020339.006
10 0 59657  21960.00000  0    1160891.518   -3778657.880    5852389.346
10 0 59657  22140.00000  0     459547.421   -2786430.622    6470648.015
10 0 59657  22320.00000  0    -230842.467   -1674884.845    6852540.571
10 0 59657  22500.00000  0    -882645.272    -484969.909    6984065.012
10 0 59657  22680.00000  0   -1470730.212     738815.956    6860289.578
10 0 59657  22860.00000  0   -1973434.520    1950080.598    6485542.232
10 0 59657  23040.00000  0   -2373367.661    3102287.860    5873287.270
10 0 59657  23220.00000  0   -2658027.324    4150549.753    5045688.963
10 0 59657  23400.00000  0   -2820207.228    5053402.757    4032864.653
10 0 59657  23580.00000  0   -2858178.389    5774501.073    2871831.212
10 0 59657  23760.00000  0   -2775629.255    6284145.987    1605166.104
10 0 59657  23940.00000  0   -2581364.302    6560572.592     279429.504
10 0 59657  24120.00000  0   -2288771.978    6590926.310   -1056592.827
10 0 59657  24300.00000  0   -1915088.443    6371870.324   -2353755.945
10 0 59657  24480.00000  0   -1480490.132    5909772.379   -3564440.676
10 0 59657  24660.00000  0   -1007072.309    5220472.498   -4644345.366
10 0 59657  24840.00000  0    -517776.225    4328664.290   -5554118.466
10 0 59657  25020.00000  0     -35316.475    3266928.349   -6260771.053
10 0 59657  25200.00000  0     418841.477    2074467.297   -6738824.683
10 0 59657  25380.00000  0     825405.112     795608.521   -6971160.676
10 0 59657  25560.00000  0    1168046.326    -521858.588   -6949568.674
10 0 59657  25740.00000  0    1434035.658   -1828458.102   -6674990.136
10 0 59657  25920.00000  0    1614700.469   -3074854.780   -6157460.001
10 0 59657  26100.00000  0    1705699.611   -4213685.714   -5415761.883
10 0 59657  26280.00000  0    1707104.910   -5201352.156   -4476789.747
10 0 59657  26460.00000  0    1623287.931   -5999698.350   -3374622.873
10 0 59657  26640.00000  0    1462613.341   -6577521.775   -2149337.432
10 0 59657  26820.00000  0    1236950.612   -6911843.883    -845576.405
10 0 59657  27000.00000  0     961024.790   -6988875.547     489075.060
10 0 59657  27180.00000  0     651635.628   -6804621.216    1805846.449
10 0 59657  27360.00000  0     326785.170   -6365087.491    3056597.443
10 0 59657  27540.00000  0       4757.745   -5686076.384    4195613.630
10 0 59657  27720.00000  0    -296801.661   -4792577.639    5181292.732
10 0 59657  27900.00000  0    -561760.271   -3717802.871    5977659.658
10 0 59657  28080.00000  0    -776279.373   -2501905.668    6555659.204
10 0 59657  28260.00000  0    -929471.913   -1190448.863    6894179.469
10 0 59657  28440.00000  0   -1013910.230     167308.196    6980790.598
10 0 59657  28620.00000  0   -1025966.699    1520253.902    6812189.814
10 0 59657  28800.00000  0    -965970.522    2817339.443    6394336.274
10 0 59657  28980.00000  0    -838175.511    4009503.271    5742272.758
10 0 59657  29160.00000  0    -650540.781    5051544.810    4879632.628
10 0 59657  29340.00000  0    -414329.759    5903883.792    3837835.415
10 0 59657  29520.00000  0    -143541.141    6534131.622    2654980.518
10 0 59657  29700.00000  0     145802.880    6918410.219    1374469.237
10 0 59657  29880.00000  0     436486.071    7042336.261      43382.086
10 0 59657  30060.00000  0     711000.366    6901608.180   -1289305.343
10 0 59657  30240.00000  0     952468.239    6502164.037   -2574593.817
10 0 59657  30420.00000  0    1145531.514    5859901.304   -3765325.294
10 0 59657  30600.00000  0    1277165.331    4999981.090   -4817956.464
10 0 59657  30780.00000  0    1337375.449    3955756.787   -5694162.259
10 0 59657  30960.00000  0    1319743.518    2767394.557   -6362204.139
10 0 59657  31140.00000  0    1221796.718    1480261.065   -6798024.124
10 0 59657  31320.00000  0    1045190.748     143157.420   -6986040.301
10 0 59657  31500.00000  0     795703.184   -1193532.782   -6919641.951
10 0 59657  31680.00000  0     483037.543   -2479719.941   -6601377.864
10 0 59657  31860.00000  0     120448.921   -3667448.558   -6042850.415
10 0 59657  32040.00000  0    -275800.437   -4712662.786   -5264319.300
10 0 59657  32220.00000  0    -687135.966   -5576837.817   -4294011.128
10 0 59657  32400.00000  0   -1093494.688   -6228424.203   -3167149.769
10 0 59657  32580.00000  0   -1474247.042   -6644045.798   -1924721.733
10 0 59657  32760.00000  0   -1809176.198   -6809395.927    -612009.795
10 0 59657  32940.00000  0   -2079467.907   -6719781.488     723060.905
10 0 59657  33120.00000  0   -2268661.590   -6380277.489    2031696.961
10 0 59657  33300.00000  0   -2363512.635   -5805480.026    3266054.533
99
